NORAD_CAT_ID,OBJECT_NAME,OBJECT_TYPE,EPOCH,MEAN_MOTION,ECCENTRICITY,INCLINATION,RA_OF_ASC_NODE,ARG_OF_PERICENTER,MEAN_ANOMALY,BSTAR,MEAN_MOTION_DOT,MEAN_MOTION_DDOT,TLE_LINE0,TLE_LINE1,TLE_LINE2,SEMIMAJOR_AXIS,PERIOD,APOGEE,PERIGEE,DECAYED
52702.0,STARLINK-4033,PAYLOAD,2023-07-10 17:09:53,15.08836072,0.0001021,53.2158,197.0019,81.7359,278.3749,3.6037e-05,2.86e-06,0.0,0 STARLINK-4033,1 52702U 22053AY  23191.71519785  .00000286  00000-0  36037-4 0  9996,2 52702  53.2158 197.0019 0001021  81.7359 278.3749 15.08836072 63791,6917.892,95.438,540.464,539.051,0.0
52702.0,STARLINK-4033,PAYLOAD,2023-07-12 00:57:36,15.08835324,0.0001047,53.2161,191.0543,83.077,277.0341,8.1494e-06,-1.58e-06,0.0,0 STARLINK-4033,1 52702U 22053AY  23193.04000288 -.00000158  00000-0  81494-5 0  9994,2 52702  53.2161 191.0543 0001047  83.0770 277.0341 15.08835324 63996,6917.895,95.438,540.484,539.035,0.0
52702.0,STARLINK-4033,PAYLOAD,2023-07-13 16:42:14,15.08843055,0.0001129,53.2171,183.6213,85.0522,275.0599,4.4881e-05,4.27e-06,0.0,0 STARLINK-4033,1 52702U 22053AY  23194.69599740  .00000427  00000-0  44881-4 0  9998,2 52702  53.2171 183.6213 0001129  85.0522 275.0599 15.08843055 64248,6917.871,95.437,540.517,538.955,0.0
52702.0,STARLINK-4033,PAYLOAD,2023-07-15 05:16:06,15.08844729,0.0001164,53.2163,176.7809,86.9679,273.1446,4.9811e-05,5.05e-06,0.0,0 STARLINK-4033,1 52702U 22053AY  23196.21951647  .00000505  00000-0  49811-4 0  9991,2 52702  53.2163 176.7809 0001164  86.9679 273.1446 15.08844729 64479,6917.866,95.437,540.536,538.926,0.0
52702.0,STARLINK-4033,PAYLOAD,2023-07-16 05:06:53,15.08838618,0.00012,53.2161,172.3191,93.6538,266.4591,3.8649e-05,3.27e-06,0.0,0 STARLINK-4033,1 52702U 22053AY  23197.21312058  .00000327  00000-0  38649-4 0  9998,2 52702  53.2161 172.3191 0001200  93.6538 266.4591 15.08838618 64626,6917.885,95.438,540.58,538.919,0.0
52702.0,STARLINK-4033,PAYLOAD,2023-07-17 14:29:59,15.08839479,0.0001184,53.2163,166.0764,90.2123,269.9005,1.7444e-05,-1e-07,0.0,0 STARLINK-4033,1 52702U 22053AY  23198.60416435 -.00000010  00000-0  17444-4 0  9996,2 52702  53.2163 166.0764 0001184  90.2123 269.9005 15.08839479 64835,6917.882,95.438,540.566,538.928,0.0
52702.0,STARLINK-4033,PAYLOAD,2023-07-18 07:59:13,15.08847635,0.0001192,53.2162,162.8052,91.6183,268.4945,0.00014178,1.97e-05,0.0,0 STARLINK-4033,1 52702U 22053AY  23199.33279607  .00001970  00000-0  14178-3 0  9990,2 52702  53.2162 162.8052 0001192  91.6183 268.4945 15.08847635 64940,6917.857,95.437,540.547,538.897,0.0
52702.0,STARLINK-4033,PAYLOAD,2023-07-18 22:17:42,15.08837718,0.0001111,53.2164,160.1271,92.0142,268.0978,2.9582e-05,1.83e-06,0.0,0 STARLINK-4033,1 52702U 22053AY  23199.92896700  .00000183  00000-0  29582-4 0  9995,2 52702  53.2164 160.1271 0001111  92.0142 268.0978 15.08837718 65031,6917.887,95.438,540.521,538.984,0.0
52702.0,STARLINK-4033,PAYLOAD,2023-07-20 20:23:54,15.0883431,0.0001232,53.2171,151.503,105.0314,255.0815,4.8185e-05,4.79e-06,0.0,0 STARLINK-4033,1 52702U 22053AY  23201.84993288  .00000479  00000-0  48185-4 0  9997,2 52702  53.2171 151.5030 0001232 105.0314 255.0815 15.08834310 65329,6917.898,95.438,540.615,538.91,0.0
52702.0,STARLINK-4033,PAYLOAD,2023-07-21 05:56:12,15.08842828,0.0001132,53.2163,149.7216,101.3791,258.7329,8.8197e-05,1.116e-05,0.0,0 STARLINK-4033,1 52702U 22053AY  23202.24736658  .00001116  00000-0  88197-4 0  9994,2 52702  53.2163 149.7216 0001132 101.3791 258.7329 15.08842828 65381,6917.872,95.437,540.52,538.954,0.0
52702.0,STARLINK-4033,PAYLOAD,2023-07-24 05:28:34,15.08837391,0.0001885,53.2172,136.3386,84.6338,275.4869,-1.4746e-05,-5.23e-06,0.0,0 STARLINK-4033,1 52702U 22053AY  23205.22817714 -.00000523  00000-0 -14746-4 0  9990,2 52702  53.2172 136.3386 0001885  84.6338 275.4869 15.08837391 66246,6917.888,95.438,541.057,538.449,0.0
52702.0,STARLINK-4033,PAYLOAD,2023-07-25 05:19:21,15.08843637,0.0001246,53.2176,131.8795,91.9122,268.2012,-3.8452e-05,-9e-06,0.0,0 STARLINK-4033,1 52702U 22053AY  23206.22177353 -.00000900  00000-0 -38452-4 0  9998,2 52702  53.2176 131.8795 0001246  91.9122 268.2012 15.08843637 66393,6917.869,95.437,540.596,538.872,0.0
52702.0,STARLINK-4033,PAYLOAD,2023-07-26 05:10:08,15.08838517,0.000131,53.218,127.4192,75.5375,284.5762,0.00010789,1.43e-05,0.0,0 STARLINK-4033,1 52702U 22053AY  23207.21537592  .00001430  00000-0  10789-3 0  9992,2 52702  53.2180 127.4192 0001310  75.5375 284.5762 15.08838517 66541,6917.885,95.438,540.656,538.844,0.0
52702.0,STARLINK-4033,PAYLOAD,2023-07-26 17:53:13,15.08838357,0.0001112,53.2177,125.0417,89.5184,270.5936,8.5218e-05,1.069e-05,0.0,0 STARLINK-4033,1 52702U 22053AY  23207.74529620  .00001069  00000-0  85218-4 0  9991,2 52702  53.2177 125.0417 0001112  89.5184 270.5936 15.08838357 66218,6917.885,95.438,540.52,538.981,0.0
52702.0,STARLINK-4033,PAYLOAD,2023-07-27 12:57:51,15.08846913,0.0001793,53.216,121.4754,67.9486,292.1696,-4.6244e-05,-1.024e-05,0.0,0 STARLINK-4033,1 52702U 22053AY  23208.54017385 -.00001024  00000-0 -46244-4 0  9999,2 52702  53.2160 121.4754 0001793  67.9486 292.1696 15.08846913 66742,6917.859,95.437,540.965,538.484,0.0
52702.0,STARLINK-4033,PAYLOAD,2023-07-27 20:54:47,15.08834322,6.74e-05,53.2188,119.983,142.7606,217.3433,-9.0203e-05,-1.723e-05,0.0,0 STARLINK-4033,1 52702U 22053AY  23208.87138150 -.00001723  00000-0 -90203-4 0  9999,2 52702  53.2188 119.9830 0000674 142.7606 217.3433 15.08834322 66796,6917.898,95.438,540.229,539.296,0.0
52702.0,STARLINK-4033,PAYLOAD,2023-07-28 00:05:34,15.08831789,8.35e-05,53.2169,119.3917,85.1926,274.9161,-0.00011492,-2.116e-05,0.0,0 STARLINK-4033,1 52702U 22053AY  23209.00386706 -.00002116  00000-0 -11492-3 0  9996,2 52702  53.2169 119.3917 0000835  85.1926 274.9161 15.08831789 66408,6917.905,95.438,540.348,539.193,0.0
52702.0,STARLINK-4033,PAYLOAD,2023-07-28 03:16:20,15.08835109,8.65e-05,53.2168,118.7968,91.3555,268.7536,-7.8447e-05,-1.536e-05,0.0,0 STARLINK-4033,1 52702U 22053AY  23209.13634425 -.00001536  00000-0 -78447-4 0  9993,2 52702  53.2168 118.7968 0000865  91.3555 268.7536 15.08835109 66830,6917.895,95.438,540.359,539.162,0.0
52702.0,STARLINK-4033,PAYLOAD,2023-07-29 01:31:42,15.08851691,0.0001021,53.2169,114.6334,81.4713,278.6395,8.4638e-05,1.06e-05,0.0,0 STARLINK-4033,1 52702U 22053AY  23210.06369019  .00001060  00000-0  84638-4 0  9990,2 52702  53.2169 114.6334 0001021  81.4713 278.6395 15.08851691 66561,6917.845,95.437,540.416,539.003,0.0
52702.0,STARLINK-4033,PAYLOAD,2023-07-29 17:25:35,15.08831444,0.0001025,53.2168,111.6597,85.2823,274.8286,0.00016349,2.315e-05,0.0,0 STARLINK-4033,1 52702U 22053AY  23210.72610093  .00002315  00000-0  16349-3 0  9991,2 52702  53.2168 111.6597 0001025  85.2823 274.8286 15.08831444 66668,6917.907,95.438,540.481,539.062,0.0
52702.0,STARLINK-4033,PAYLOAD,2023-07-30 02:57:53,15.08842726,0.0001065,53.2168,109.875,87.0234,273.088,0.0001991,2.883e-05,0.0,0 STARLINK-4033,1 52702U 22053AY  23211.12353611  .00002883  00000-0  19910-3 0  9993,2 52702  53.2168 109.8750 0001065  87.0234 273.0880 15.08842726 66721,6917.872,95.437,540.474,539.0,0.0
52702.0,STARLINK-4033,PAYLOAD,2023-07-31 17:07:09,15.08834767,0.0001171,53.2162,102.7379,85.2595,274.8531,5.8558e-05,6.44e-06,0.0,0 STARLINK-4033,1 52702U 22053AY  23212.71330487  .00000644  00000-0  58558-4 0  9990,2 52702  53.2162 102.7379 0001171  85.2595 274.8531 15.08834767 66966,6917.896,95.438,540.571,538.951,0.0
52702.0,STARLINK-4033,PAYLOAD,2023-08-01 23:19:28,15.08841212,0.0001273,53.2173,97.0867,94.9733,265.1405,5.8573e-05,6.44e-06,0.0,0 STARLINK-4033,1 52702U 22053AY  23213.97186209  .00000644  00000-0  58573-4 0  9997,2 52702  53.2173  97.0867 0001273  94.9733 265.1405 15.08841212 67158,6917.877,95.437,540.622,538.861,0.0
52702.0,STARLINK-4033,PAYLOAD,2023-08-02 08:51:47,15.08851686,0.0001281,53.2181,95.3028,89.5401,270.5738,-4.2195e-05,-9.6e-06,0.0,0 STARLINK-4033,1 52702U 22053AY  23214.36929728 -.00000960  00000-0 -42195-4 0  9998,2 52702  53.2181  95.3028 0001281  89.5401 270.5738 15.08851686 67210,6917.845,95.437,540.596,538.823,0.0
52702.0,STARLINK-4033,PAYLOAD,2023-08-02 21:34:53,15.0883799,0.0001189,53.2174,92.9237,79.2379,280.8747,8.7932e-05,1.112e-05,0.0,0 STARLINK-4033,1 52702U 22053AY  23214.89922506  .00001112  00000-0  87932-4 0  9999,2 52702  53.2174  92.9237 0001189  79.2379 280.8747 15.08837990 67298,6917.887,95.438,540.574,538.929,0.0
52702.0,STARLINK-4033,PAYLOAD,2023-08-04 00:36:26,15.08843644,0.0001074,53.2165,87.8708,90.751,269.3605,3.3885e-05,2.52e-06,0.0,0 STARLINK-4033,1 52702U 22053AY  23216.02530474  .00000252  00000-0  33885-4 0  9997,2 52702  53.2165  87.8708 0001074  90.7510 269.3605 15.08843644 67469,6917.869,95.437,540.477,538.991,0.0
52702.0,STARLINK-4033,PAYLOAD,2023-08-04 10:08:45,15.08837494,0.0001126,53.2165,86.0858,87.9871,272.125,-8.9882e-06,-4.31e-06,0.0,0 STARLINK-4033,1 52702U 22053AY  23216.42274962 -.00000431  00000-0 -89882-5 0  9998,2 52702  53.2165  86.0858 0001126  87.9871 272.1250 15.08837494 67523,6917.888,95.438,540.532,538.974,0.0
52702.0,STARLINK-4033,PAYLOAD,2023-08-04 22:51:50,15.08846505,0.0001072,53.2171,83.7078,83.7168,276.3946,4.6198e-05,4.48e-06,0.0,0 STARLINK-4033,1 52702U 22053AY  23216.95266356  .00000448  00000-0  46198-4 0  9992,2 52702  53.2171  83.7078 0001072  83.7168 276.3946 15.08846505 67601,6917.861,95.437,540.467,538.984,0.0
52702.0,STARLINK-4033,PAYLOAD,2023-08-05 09:59:32,15.08822441,0.0001088,53.2169,81.6254,95.1207,264.9909,0.00036898,5.587e-05,0.0,0 STARLINK-4033,1 52702U 22053AY  23217.41634594  .00005587  00000-0  36898-3 0  9991,2 52702  53.2169  81.6254 0001088  95.1207 264.9909 15.08822441 67671,6917.934,95.439,540.552,539.046,0.0
52702.0,STARLINK-4033,PAYLOAD,2023-08-06 00:17:59,15.08856791,0.0001089,53.217,78.9494,87.2666,272.8451,0.00019642,2.841e-05,0.0,0 STARLINK-4033,1 52702U 22053AY  23218.01249138  .00002841  00000-0  19642-3 0  9992,2 52702  53.2170  78.9494 0001089  87.2666 272.8451 15.08856791 67765,6917.829,95.436,540.447,538.941,0.0
